[{"OBJECT_NAME":"TEVEL2-9","OBJECT_ID":"2025-052AD","EPOCH":"2026-03-09T16:51:18.321696","MEAN_MOTION":15.28633834,"ECCENTRICITY":0.000799,"INCLINATION":97.4057,"RA_OF_ASC_NODE":324.3929,"ARG_OF_PERICENTER":124.2475,"MEAN_ANOMALY":235.9522,"EPHEMERIS_TYPE":0,"CLASSIFICATION_TYPE":"U","NORAD_CAT_ID":63237,"ELEMENT_SET_NO":999,"REV_AT_EPOCH":5481,"BSTAR":0.00067240159,"MEAN_MOTION_DOT":0.00018694,"MEAN_MOTION_DDOT":0},{"OBJECT_NAME":"STARLINK-35479","OBJECT_ID":"2025-253H","EPOCH":"2026-03-09T10:14:25.936512","MEAN_MOTION":15.27610344,"ECCENTRICITY":6.014e-5,"INCLINATION":42.9949,"RA_OF_ASC_NODE":214.038,"ARG_OF_PERICENTER":172.3535,"MEAN_ANOMALY":187.7326,"EPHEMERIS_TYPE":0,"CLASSIFICATION_TYPE":"U","NORAD_CAT_ID":66326,"ELEMENT_SET_NO":999,"REV_AT_EPOCH":2020,"BSTAR":0.0012142397,"MEAN_MOTION_DOT":0.00033333,"MEAN_MOTION_DDOT":0}]
